// ⚠️ AUTO-GENERATED FILE — DO NOT EDIT BY HAND.
// Generated from the database editor. Edit data via the editor UI, then regenerate.

import { IOrbit } from '@/core/models/types'

export const Orbits: IOrbit[] = [
  { id: 1, actorId: 2, semiMajorAxis: 1.009206075819665, eccentricity: 0.01237169516320445, inclination: 0.009397333378194928, argOfPeriapsis: 271.5251234996077, ascendingNode: 180.7986508633575, meanAnomalyAtEpoch: 186.5235877458566, epoch: 2461222.5, period: 365.256363 },
  { id: 2, actorId: 3, semiMajorAxis: 39.48916657159032, eccentricity: 0.2490216597567795, inclination: 17.14063181882025, argOfPeriapsis: 113.7745765562923, ascendingNode: 110.3009640569371, meanAnomalyAtEpoch: 53.31170322540422, epoch: 2461222.5, period: 90560 },
  { id: 3, actorId: 4, semiMajorAxis: 0.003438498548108414, eccentricity: 0.7786133768750617, inclination: 1.246714198901501, argOfPeriapsis: 287.2310906273041, ascendingNode: 131.4406364906451, meanAnomalyAtEpoch: 239.802845519128, epoch: 2461222.5, period: 1500.317777334874 },
  { id: 4, actorId: 5, semiMajorAxis: 0.3946564622774094, eccentricity: 0.196730509582753, inclination: 6.981669388364423, argOfPeriapsis: 28.57269359559821, ascendingNode: 48.62437912441221, meanAnomalyAtEpoch: 178.7377409737233, epoch: 2461222.5, period: 87.9691 },
  { id: 5, actorId: 6, semiMajorAxis: 0.7306743519788563, eccentricity: 0.01314323452879109, inclination: 3.398479393415786, argOfPeriapsis: 68.18535985794112, ascendingNode: 76.67882659916192, meanAnomalyAtEpoch: 61.46132873737873, epoch: 2461222.5, period: 224.7008 },
  { id: 6, actorId: 7, semiMajorAxis: 0.00003142756976447787, eccentricity: 0.04832610286092753, inclination: 5.098131427919135, argOfPeriapsis: 294.7030589354315, ascendingNode: 330.4867112111355, meanAnomalyAtEpoch: 206.9108916150584, epoch: 2461222.5, period: 27.321661 },
  { id: 7, actorId: 8, semiMajorAxis: 1.510749105735219, eccentricity: 0.08913055997144312, inclination: 1.845273168408649, argOfPeriapsis: 284.8256275265981, ascendingNode: 49.27659804477391, meanAnomalyAtEpoch: 52.76954209826091, epoch: 2461222.5, period: 686.98 },
  { id: 8, actorId: 9, semiMajorAxis: 2.747797050851881, eccentricity: 0.07934524857034855, inclination: 10.59343634527631, argOfPeriapsis: 76.41431378868741, ascendingNode: 80.24673988722188, meanAnomalyAtEpoch: 275.9767190768956, epoch: 2461222.5, period: 1681.63 },
  { id: 9, actorId: 10, semiMajorAxis: 5.198641920555382, eccentricity: 0.04878403604222448, inclination: 1.304059139834348, argOfPeriapsis: 273.6519167810755, ascendingNode: 100.5041347764806, meanAnomalyAtEpoch: 104.3188496127015, epoch: 2461222.5, period: 4332.589 },
  { id: 10, actorId: 11, semiMajorAxis: 9.535661184246292, eccentricity: 0.05442481856887161, inclination: 2.488195852412359, argOfPeriapsis: 338.7705975841495, ascendingNode: 113.6258914150197, meanAnomalyAtEpoch: 281.4387886420843, epoch: 2461222.5, period: 10759.22 },
  { id: 11, actorId: 12, semiMajorAxis: 19.18849018543216, eccentricity: 0.04724476371112292, inclination: 0.7723558226050958, argOfPeriapsis: 97.08980984012828, ascendingNode: 74.00009909745205, meanAnomalyAtEpoch: 255.6716512730322, epoch: 2461222.5, period: 30688.5 },
  { id: 12, actorId: 13, semiMajorAxis: 30.07228456171923, eccentricity: 0.008632773352091993, inclination: 1.774558166599797, argOfPeriapsis: 272.1099727778853, ascendingNode: 131.9508455021218, meanAnomalyAtEpoch: 318.6922280053676, epoch: 2461222.5, period: 60182 },
  { id: 13, actorId: 14, semiMajorAxis: 0.0000142481245146622, eccentricity: 0.0002137748009755759, inclination: 112.8877803028776, argOfPeriapsis: 350.2383912788362, ascendingNode: 227.3930586306129, meanAnomalyAtEpoch: 199.4031491878153, epoch: 2461222.5, period: 6.387223 },
  { id: 14, actorId: 15, semiMajorAxis: 43.10239531736899, eccentricity: 0.1950260537121991, inclination: 28.20482520812797, argOfPeriapsis: 239.9473598657555, ascendingNode: 121.94642288161, meanAnomalyAtEpoch: 224.1561936531104, epoch: 2461222.5, period: 103290.256070957 },
  { id: 15, actorId: 16, semiMajorAxis: 45.49863258601047, eccentricity: 0.1603880248291641, inclination: 29.00208348713054, argOfPeriapsis: 296.065334499037, ascendingNode: 79.44144763356499, meanAnomalyAtEpoch: 171.2102907080056, epoch: 2461222.5, period: 112022.3714877927 },
  { id: 16, actorId: 17, semiMajorAxis: 67.83510952574495, eccentricity: 0.4384310250239392, inclination: 43.99296827347083, argOfPeriapsis: 151.2211419814186, ascendingNode: 35.97647515300483, meanAnomalyAtEpoch: 210.9267375195487, epoch: 2461222.5, period: 203933.7199587614 },
  { id: 17, actorId: 18, semiMajorAxis: 506.4433571455801, eccentricity: 0.8495557321015216, inclination: 11.92852425869942, argOfPeriapsis: 311.2847649458771, ascendingNode: 144.4015818622053, meanAnomalyAtEpoch: 358.431502231177, epoch: 2461222.5, period: 4160098.023881622 },
  { id: 18, actorId: 19, semiMajorAxis: 0.00255507927967268, eccentricity: 0.04832610286096969, inclination: 5.098131427919136, argOfPeriapsis: 114.703058935456, ascendingNode: 330.4867112111356, meanAnomalyAtEpoch: 206.9108916150339, epoch: 2461222.5, period: 27.321661 },
  { id: 19, actorId: 20, semiMajorAxis: 0.002821180071835166, eccentricity: 0.004775132980470328, inclination: 2.221272516918855, argOfPeriapsis: 110.4861641868616, ascendingNode: 338.4753149661173, meanAnomalyAtEpoch: 353.6124132956097, epoch: 2461222.5, period: 1.771434163262949 },
  { id: 20, actorId: 21, semiMajorAxis: 0.004486387188802943, eccentricity: 0.009565677711651791, inclination: 2.101058746755369, argOfPeriapsis: 305.0667639469763, ascendingNode: 326.0443993712576, meanAnomalyAtEpoch: 355.4163652065802, epoch: 2461222.5, period: 3.552455598307942 },
  { id: 21, actorId: 22, semiMajorAxis: 0.007157046434015238, eccentricity: 0.002067779291510635, inclination: 2.342318179395149, argOfPeriapsis: 21.10380711160834, ascendingNode: 339.1252693590949, meanAnomalyAtEpoch: 88.43216511770966, epoch: 2461222.5, period: 7.157689008960192 },
  { id: 22, actorId: 23, semiMajorAxis: 0.01259123718822301, eccentricity: 0.007510248490391187, inclination: 1.952406781462298, argOfPeriapsis: 36.05603154505556, ascendingNode: 336.7233194131962, meanAnomalyAtEpoch: 20.46691846315107, epoch: 2461222.5, period: 16.70241701136507 },
  { id: 23, actorId: 24, semiMajorAxis: 0.001243477970490833, eccentricity: 0.0199164458592169, inclination: 26.47348067082947, argOfPeriapsis: 64.91242323489762, ascendingNode: 169.4867163149493, meanAnomalyAtEpoch: 284.5097461321376, epoch: 2461222.5, period: 0.9473556428187435 },
  { id: 24, actorId: 25, semiMajorAxis: 0.001593667741932572, eccentricity: 0.004337590030980703, inclination: 28.04503071775, argOfPeriapsis: 142.426584551923, ascendingNode: 169.5191033489133, meanAnomalyAtEpoch: 267.4810696789817, epoch: 2461222.5, period: 1.374524701091124 },
  { id: 25, actorId: 26, semiMajorAxis: 0.001971797801322468, eccentricity: 0.001041523680461322, inclination: 27.78312133678952, argOfPeriapsis: 276.9409501057339, ascendingNode: 171.7859407499718, meanAnomalyAtEpoch: 350.5874288293908, epoch: 2461222.5, period: 1.89168686432687 },
  { id: 26, actorId: 27, semiMajorAxis: 0.002524474764450518, eccentricity: 0.001575295816637177, inclination: 28.0248937315611, argOfPeriapsis: 256.9513214045539, ascendingNode: 169.5421505071176, meanAnomalyAtEpoch: 209.3007021866727, epoch: 2461222.5, period: 2.740387949150307 },
  { id: 27, actorId: 28, semiMajorAxis: 0.003524371079925462, eccentricity: 0.001244652964707064, inclination: 28.26323237962303, argOfPeriapsis: 153.0223445818702, ascendingNode: 169.9930079035492, meanAnomalyAtEpoch: 299.199730959517, epoch: 2461222.5, period: 4.520406379071475 },
  { id: 28, actorId: 29, semiMajorAxis: 0.008168021563040737, eccentricity: 0.02871549414583647, inclination: 27.70697999113419, argOfPeriapsis: 178.3218745766363, ascendingNode: 169.0797041386994, meanAnomalyAtEpoch: 118.3614435198302, epoch: 2461222.5, period: 15.94703101286209 },
  { id: 29, actorId: 30, semiMajorAxis: 0.02380369196645762, eccentricity: 0.02859729459794852, inclination: 16.98309860298372, argOfPeriapsis: 232.8469817785583, ascendingNode: 138.8734360232043, meanAnomalyAtEpoch: 201.6271550563397, epoch: 2461222.5, period: 79.3453919064766 },
  { id: 30, actorId: 31, semiMajorAxis: 0.0008681317335240398, eccentricity: 0.001213729899694656, inclination: 98.43480244806418, argOfPeriapsis: 73.63864786563842, ascendingNode: 163.2348271042776, meanAnomalyAtEpoch: 98.18587194072144, epoch: 2461222.5, period: 1.413986109485775 },
  { id: 31, actorId: 32, semiMajorAxis: 0.00127639277223629, eccentricity: 0.0002522540361251098, inclination: 97.71701852651955, argOfPeriapsis: 250.7649382108349, ascendingNode: 167.6654760442371, meanAnomalyAtEpoch: 199.3039710826544, epoch: 2461222.5, period: 2.520810662443251 },
  { id: 32, actorId: 33, semiMajorAxis: 0.00177804564141248, eccentricity: 0.003536316239490986, inclination: 97.71334327153652, argOfPeriapsis: 55.38544032940133, ascendingNode: 167.7249213992278, meanAnomalyAtEpoch: 264.3493471590902, epoch: 2461222.5, period: 4.144555943164635 },
  { id: 33, actorId: 34, semiMajorAxis: 0.002916425644547049, eccentricity: 0.002346896709179482, inclination: 97.76260175823901, argOfPeriapsis: 239.7837028779653, ascendingNode: 167.6431918039924, meanAnomalyAtEpoch: 255.0366019550611, epoch: 2461222.5, period: 8.70632474202011 },
  { id: 34, actorId: 35, semiMajorAxis: 0.003900036011974553, eccentricity: 0.0008238585204993906, inclination: 97.90563165660934, argOfPeriapsis: 159.8277241049718, ascendingNode: 167.7087781650245, meanAnomalyAtEpoch: 119.003462143411, epoch: 2461222.5, period: 13.46361695495526 },
  { id: 35, actorId: 36, semiMajorAxis: 0.002371468083263021, eccentricity: 0.00003018012577834901, inclination: 129.1277292631191, argOfPeriapsis: 312.232528221754, ascendingNode: 222.7867760981167, meanAnomalyAtEpoch: 25.10551155165235, epoch: 2461222.5, period: 5.877088842609361 },
